NORAD_CAT_ID,OBJECT_NAME,OBJECT_TYPE,EPOCH,MEAN_MOTION,ECCENTRICITY,INCLINATION,RA_OF_ASC_NODE,ARG_OF_PERICENTER,MEAN_ANOMALY,BSTAR,MEAN_MOTION_DOT,MEAN_MOTION_DDOT,TLE_LINE0,TLE_LINE1,TLE_LINE2,SEMIMAJOR_AXIS,PERIOD,APOGEE,PERIGEE,DECAYED
51718.0,STARLINK-3546,PAYLOAD,2023-09-28 16:13:40,15.08839516,0.0001536,53.2192,18.0155,84.3997,275.717,0.00016934,2.408e-05,0.0,0 STARLINK-3546,1 51718U 22016E   23271.67616152  .00002408  00000-0  16934-3 0  9992,2 51718  53.2192  18.0155 0001536  84.3997 275.7170 15.08839516 89733,6917.882,95.438,540.809,538.684,0.0
51718.0,STARLINK-3546,PAYLOAD,2023-09-29 14:29:04,15.08845071,0.0001706,53.2192,13.8508,106.4352,253.6827,4.1656e-05,3.75e-06,0.0,0 STARLINK-3546,1 51718U 22016E   23272.60352106  .00000375  00000-0  41656-4 0  9993,2 51718  53.2192  13.8508 0001706 106.4352 253.6827 15.08845071 89870,6917.865,95.437,540.91,538.55,0.0
51718.0,STARLINK-3546,PAYLOAD,2023-09-30 12:44:27,15.08853882,0.0001421,53.2179,9.6887,94.3456,265.7699,0.00013945,1.933e-05,0.0,0 STARLINK-3546,1 51718U 22016E   23273.53087126  .00001933  00000-0  13945-3 0  9993,2 51718  53.2179   9.6887 0001421  94.3456 265.7699 15.08853882 89951,6917.838,95.437,540.686,538.72,0.0
51718.0,STARLINK-3546,PAYLOAD,2023-09-30 23:52:09,15.08849732,0.0001597,53.2193,7.6078,88.044,272.0735,0.00014771,2.064e-05,0.0,0 STARLINK-3546,1 51718U 22016E   23273.99455393  .00002064  00000-0  14771-3 0  9992,2 51718  53.2193   7.6078 0001597  88.0440 272.0735 15.08849732 90025,6917.851,95.437,540.82,538.611,0.0
51718.0,STARLINK-3546,PAYLOAD,2023-10-01 12:35:14,15.08845053,0.0001724,53.2184,5.2271,104.2109,255.9074,6.4972e-05,7.46e-06,0.0,0 STARLINK-3546,1 51718U 22016E   23274.52447583  .00000746  00000-0  64972-4 0  9998,2 51718  53.2184   5.2271 0001724 104.2109 255.9074 15.08845053 90106,6917.865,95.437,540.923,538.537,0.0
51718.0,STARLINK-3546,PAYLOAD,2023-10-01 15:46:00,15.08853253,0.0002303,53.219,4.6285,119.2345,240.8878,1.596e-06,-2.63e-06,0.0,0 STARLINK-3546,1 51718U 22016E   23274.65695010 -.00000263  00000-0  15960-5 0  9991,2 51718  53.2190   4.6285 0002303 119.2345 240.8878 15.08853253 90187,6917.84,95.437,541.298,538.112,0.0
51718.0,STARLINK-3546,PAYLOAD,2023-10-01 23:42:57,15.0883113,0.0002132,53.2182,3.1469,78.7813,281.3419,-0.00013525,-2.44e-05,0.0,0 STARLINK-3546,1 51718U 22016E   23274.98816532 -.00002440  00000-0 -13525-3 0  9994,2 51718  53.2182   3.1469 0002132  78.7813 281.3419 15.08831130 90175,6917.908,95.438,541.247,538.298,0.0
51718.0,STARLINK-3546,PAYLOAD,2023-10-02 12:26:02,15.08828718,0.0001708,53.2189,0.7675,83.1761,276.9425,-0.0002258,-3.879e-05,0.0,0 STARLINK-3546,1 51718U 22016E   23275.51808857 -.00003879  00000-0 -22580-3 0  9993,2 51718  53.2189   0.7675 0001708  83.1761 276.9425 15.08828718 90315,6917.915,95.438,540.961,538.598,0.0
51718.0,STARLINK-3546,PAYLOAD,2023-10-03 12:16:49,15.08851564,0.0001583,53.2178,356.3084,81.449,278.6681,0.00021683,3.166e-05,0.0,0 STARLINK-3546,1 51718U 22016E   23276.51168017  .00003166  00000-0  21683-3 0  9991,2 51718  53.2178 356.3084 0001583  81.4490 278.6681 15.08851564 90406,6917.845,95.437,540.805,538.615,0.0
51718.0,STARLINK-3546,PAYLOAD,2023-10-04 10:32:13,15.08856765,0.0001793,53.2178,352.1443,78.0592,282.0601,0.00042243,6.444e-05,0.0,0 STARLINK-3546,1 51718U 22016E   23277.43904323  .00006444  00000-0  42243-3 0  9998,2 51718  53.2178 352.1443 0001793  78.0592 282.0601 15.08856765 90541,6917.829,95.436,540.935,538.454,0.0
51718.0,STARLINK-3546,PAYLOAD,2023-10-04 12:07:36,15.08860341,0.0001812,53.218,351.8464,77.4344,282.6851,0.00064236,9.956e-05,0.0,0 STARLINK-3546,1 51718U 22016E   23277.50528204  .00009956  00000-0  64236-3 0  9993,2 51718  53.2180 351.8464 0001812  77.4344 282.6851 15.08860341 90619,6917.818,95.436,540.937,538.43,0.0
51718.0,STARLINK-3546,PAYLOAD,2023-10-04 15:18:22,15.0886768,0.000179,53.2176,351.2514,70.7066,289.4119,0.00088552,0.00013844,0.0,0 STARLINK-3546,1 51718U 22016E   23277.63775955  .00013844  00000-0  88552-3 0  9992,2 51718  53.2176 351.2514 0001790  70.7066 289.4119 15.08867680 90633,6917.796,95.436,540.899,538.422,0.0
51718.0,STARLINK-3546,PAYLOAD,2023-10-05 05:36:51,15.08838471,0.0001851,53.2172,348.5757,103.8034,256.3164,0.00061876,9.573e-05,0.0,0 STARLINK-3546,1 51718U 22016E   23278.23392465  .00009573  00000-0  61876-3 0  9994,2 51718  53.2172 348.5757 0001851 103.8034 256.3164 15.08838471 90660,6917.885,95.438,541.031,538.47,0.0
51718.0,STARLINK-3546,PAYLOAD,2023-10-05 11:58:23,15.0884962,0.000177,53.2174,347.3876,102.9235,257.1955,0.0010709,0.00016801,0.0,0 STARLINK-3546,1 51718U 22016E   23278.49888323  .00016801  00000-0  10709-2 0  9995,2 51718  53.2174 347.3876 0001770 102.9235 257.1955 15.08849620 90760,6917.851,95.437,540.94,538.492,0.0
51718.0,STARLINK-3546,PAYLOAD,2023-10-06 03:52:15,15.08843736,0.0002036,53.2176,344.4176,110.4464,249.6747,0.00034876,5.267e-05,0.0,0 STARLINK-3546,1 51718U 22016E   23279.16128523  .00005267  00000-0  34876-3 0  9995,2 51718  53.2176 344.4176 0002036 110.4464 249.6747 15.08843736 90809,6917.869,95.437,541.142,538.325,0.0
51718.0,STARLINK-3546,PAYLOAD,2023-10-06 10:13:48,15.0883524,0.000132,53.2167,343.2222,83.8722,276.242,0.0003054,4.575e-05,0.0,0 STARLINK-3546,1 51718U 22016E   23279.42625043  .00004575  00000-0  30540-3 0  9998,2 51718  53.2167 343.2222 0001320  83.8722 276.2420 15.08835240 90842,6917.895,95.438,540.673,538.847,0.0
51718.0,STARLINK-3546,PAYLOAD,2023-10-07 11:39:58,15.08852185,0.0001599,53.2176,338.4641,81.2137,278.9037,0.00062894,9.739e-05,0.0,0 STARLINK-3546,1 51718U 22016E   23280.48609017  .00009739  00000-0  62894-3 0  9993,2 51718  53.2176 338.4641 0001599  81.2137 278.9037 15.08852185 91068,6917.843,95.437,540.814,538.602,0.0
51718.0,STARLINK-3546,PAYLOAD,2023-10-07 21:12:17,15.08841541,0.0001679,53.2187,336.6813,82.398,277.7203,0.00042476,6.479e-05,0.0,0 STARLINK-3546,1 51718U 22016E   23280.88353271  .00006479  00000-0  42476-3 0  9997,2 51718  53.2187 336.6813 0001679  82.3980 277.7203 15.08841541 91121,6917.876,95.437,540.902,538.579,0.0
51718.0,STARLINK-3546,PAYLOAD,2023-10-08 03:33:49,15.08841895,0.0001725,53.2166,335.4923,80.896,279.2228,0.00025306,3.742e-05,0.0,0 STARLINK-3546,1 51718U 22016E   23281.14849395  .00003742  00000-0  25306-3 0  9997,2 51718  53.2166 335.4923 0001725  80.8960 279.2228 15.08841895 91104,6917.875,95.437,540.933,538.546,0.0
51718.0,STARLINK-3546,PAYLOAD,2023-10-08 09:55:22,15.08843399,0.000148,53.2162,334.3018,81.944,278.172,0.00028096,4.187e-05,0.0,0 STARLINK-3546,1 51718U 22016E   23281.41345313  .00004187  00000-0  28096-3 0  9991,2 51718  53.2162 334.3018 0001480  81.9440 278.1720 15.08843399 91203,6917.87,95.437,540.759,538.711,0.0
51718.0,STARLINK-3546,PAYLOAD,2023-10-08 21:03:04,15.08850968,0.0001489,53.2164,332.2209,79.6181,280.4978,0.00056997,8.797e-05,0.0,0 STARLINK-3546,1 51718U 22016E   23281.87713224  .00008797  00000-0  56997-3 0  9993,2 51718  53.2164 332.2209 0001489  79.6181 280.4978 15.08850968 91277,6917.847,95.437,540.742,538.682,0.0
51718.0,STARLINK-3546,PAYLOAD,2023-10-09 09:46:09,15.08852117,0.0001726,53.2165,329.8412,88.7121,271.4069,0.00058896,9.101e-05,0.0,0 STARLINK-3546,1 51718U 22016E   23282.40705171  .00009101  00000-0  58896-3 0  9995,2 51718  53.2165 329.8412 0001726  88.7121 271.4069 15.08852117 91296,6917.843,95.437,540.902,538.514,0.0
51718.0,STARLINK-3546,PAYLOAD,2023-10-10 03:15:23,15.08854215,0.0001593,53.2156,326.5706,76.5931,283.5239,0.0004746,7.276e-05,0.0,0 STARLINK-3546,1 51718U 22016E   23283.13568984  .00007276  00000-0  47460-3 0  9991,2 51718  53.2156 326.5706 0001593  76.5931 283.5239 15.08854215 91409,6917.837,95.437,540.804,538.6,0.0
51718.0,STARLINK-3546,PAYLOAD,2023-10-10 09:36:56,15.08850639,0.0001727,53.2169,325.3817,93.082,267.037,0.00029318,4.382e-05,0.0,0 STARLINK-3546,1 51718U 22016E   23283.40064915  .00004382  00000-0  29318-3 0  9993,2 51718  53.2169 325.3817 0001727  93.0820 267.0370 15.08850639 91503,6917.848,95.437,540.908,538.518,0.0
51718.0,STARLINK-3546,PAYLOAD,2023-10-11 03:06:11,15.08839032,0.0001772,53.2166,322.1097,87.6593,272.4602,8.0584e-05,9.95e-06,0.0,0 STARLINK-3546,1 51718U 22016E   23284.12929412  .00000995  00000-0  80584-4 0  9994,2 51718  53.2166 322.1097 0001772  87.6593 272.4602 15.08839032 91558,6917.883,95.438,540.974,538.522,0.0
51718.0,STARLINK-3546,PAYLOAD,2023-10-11 12:38:30,15.08838322,0.0001629,53.2161,320.3264,81.0177,279.1,7.9047e-05,9.7e-06,0.0,0 STARLINK-3546,1 51718U 22016E   23284.52673678  .00000970  00000-0  79047-4 0  9993,2 51718  53.2161 320.3264 0001629  81.0177 279.1000 15.08838322 91676,6917.886,95.438,540.877,538.624,0.0
51718.0,STARLINK-3546,PAYLOAD,2023-10-12 09:18:30,15.08849933,0.0001653,53.2162,316.4608,83.8091,276.3089,0.0005106,7.85e-05,0.0,0 STARLINK-3546,1 51718U 22016E   23285.38785562  .00007850  00000-0  51060-3 0  9992,2 51718  53.2162 316.4608 0001653  83.8091 276.3089 15.08849933 91808,6917.85,95.437,540.859,538.572,0.0
51718.0,STARLINK-3546,PAYLOAD,2023-10-13 10:44:40,15.08850772,0.000165,53.2158,311.7025,79.9636,280.1542,0.00036132,5.469e-05,0.0,0 STARLINK-3546,1 51718U 22016E   23286.44769649  .00005469  00000-0  36132-3 0  9995,2 51718  53.2158 311.7025 0001650  79.9636 280.1542 15.08850772 91903,6917.847,95.437,540.854,538.571,0.0
51718.0,STARLINK-3546,PAYLOAD,2023-10-13 18:41:36,15.08850586,0.0001641,53.2161,310.2154,79.0018,281.1158,0.00030576,4.583e-05,0.0,0 STARLINK-3546,1 51718U 22016E   23286.77889522  .00004583  00000-0  30576-3 0  9996,2 51718  53.2161 310.2154 0001641  79.0018 281.1158 15.08850586 92019,6917.848,95.437,540.848,538.578,0.0
51718.0,STARLINK-3546,PAYLOAD,2023-10-14 01:03:09,15.08845703,0.0001842,53.2177,309.0282,86.4792,273.6411,0.00012883,1.763e-05,0.0,0 STARLINK-3546,1 51718U 22016E   23287.04385621  .00001763  00000-0  12883-3 0  9996,2 51718  53.2177 309.0282 0001842  86.4792 273.6411 15.08845703 91997,6917.863,95.437,541.002,538.454,0.0
